[{"OBJECT_NAME":"YAOGAN-14","OBJECT_ID":"2012-021A","EPOCH":"2026-03-09T23:13:16.463424","MEAN_MOTION":15.26486019,"ECCENTRICITY":0.00056417,"INCLINATION":97.2863,"RA_OF_ASC_NODE":208.4378,"ARG_OF_PERICENTER":161.6562,"MEAN_ANOMALY":198.4882,"EPHEMERIS_TYPE":0,"CLASSIFICATION_TYPE":"U","NORAD_CAT_ID":38257,"ELEMENT_SET_NO":999,"REV_AT_EPOCH":77067,"BSTAR":0.00037795498,"MEAN_MOTION_DOT":9.798e-5,"MEAN_MOTION_DDOT":0},{"OBJECT_NAME":"STARLINK-32676","OBJECT_ID":"2024-249T","EPOCH":"2026-03-09T09:35:54.633696","MEAN_MOTION":15.27568767,"ECCENTRICITY":3.742e-5,"INCLINATION":43.0006,"RA_OF_ASC_NODE":316.1997,"ARG_OF_PERICENTER":22.4031,"MEAN_ANOMALY":337.6837,"EPHEMERIS_TYPE":0,"CLASSIFICATION_TYPE":"U","NORAD_CAT_ID":62426,"ELEMENT_SET_NO":999,"REV_AT_EPOCH":6776,"BSTAR":0.00081741529,"MEAN_MOTION_DOT":0.00022292,"MEAN_MOTION_DDOT":0}]
